[Satellite]
VERSION=1.1
NAME=FLOCK 3P-63
NICKNAME=FLOCK 3P-63
TLE1=1 42035U 17008CR  18020.84327837  .00002912  00000-0  12380-3 0  9994
TLE2=2 42035  97.4691  86.5440 0008490 161.6391 198.5154 15.23811178 49639
